STARLINK-33867          
1 63795U 25091W   25127.91668981 -.00877623  24456-3 -22123-2 0  9993
2 63795  43.0012 348.7476 0001573 258.5609  15.7414 15.94653621  2031
STARLINK-33918          
1 63796U 25091X   25127.91668981 -.00880285  24606-3 -22118-2 0  9993
2 63796  43.0012 348.7457 0001675 259.6252  15.7442 15.94714300  2088
STARLINK-33712          
1 63797U 25091Y   25127.91668981 -.01717135  00000+0 -60855-2 0  9996
2 63797  43.0012 348.7695 0001697 267.7779 357.9075 15.90816939  2036
STARLINK-33827          
1 63798U 25091Z   25128.25002315 -.01009106  31460-3 -25820-2 0  9991
2 63798  43.0006 346.6523 0001798 243.5187 151.1894 15.94397604  2078
STARLINK-33899          
1 63799U 25091AA  25128.16667824 -.00965114  29070-3 -24383-2 0  9990
2 63799  43.0010 347.1698 0001893 263.2635  14.1219 15.94626247  2174
STARLINK-33900          
1 63800U 25091AB  25128.16667824 -.00966270  29162-3 -24281-2 0  9996
2 63800  43.0007 347.1650 0002125 266.6051  12.5346 15.94725780  2174
STARLINK-33975          
1 63802U 25091AC  25128.16667824 -.00972894  29558-3 -24315-2 0  9994
2 63802  43.0007 347.1605 0002107 266.5613  14.3120 15.94827917  2174
STARLINK-33951          
1 63803U 25091AD  25128.16667824 -.00978141  29880-3 -24315-2 0  9994
2 63803  43.0009 347.1568 0001822 260.8653  21.7094 15.94929694  2110
